[{"OBJECT_NAME":"STARLINK-35871","OBJECT_ID":"2025-268K","EPOCH":"2026-03-09T02:36:21.306816","MEAN_MOTION":15.27576379,"ECCENTRICITY":0.00017407,"INCLINATION":43.0044,"RA_OF_ASC_NODE":350.1058,"ARG_OF_PERICENTER":286.9653,"MEAN_ANOMALY":73.1008,"EPHEMERIS_TYPE":0,"CLASSIFICATION_TYPE":"U","NORAD_CAT_ID":66566,"ELEMENT_SET_NO":999,"REV_AT_EPOCH":1787,"BSTAR":0.0015306626,"MEAN_MOTION_DOT":0.00042095,"MEAN_MOTION_DDOT":0},{"OBJECT_NAME":"FENGYUN 1C DEB","OBJECT_ID":"1999-025EGV","EPOCH":"2026-02-28T16:17:34.017216","MEAN_MOTION":14.9983724,"ECCENTRICITY":0.01801634,"INCLINATION":98.631,"RA_OF_ASC_NODE":214.8944,"ARG_OF_PERICENTER":42.5154,"MEAN_ANOMALY":318.9857,"EPHEMERIS_TYPE":0,"CLASSIFICATION_TYPE":"U","NORAD_CAT_ID":37427,"ELEMENT_SET_NO":999,"REV_AT_EPOCH":61490,"BSTAR":0.00040638516,"MEAN_MOTION_DOT":7.014e-5,"MEAN_MOTION_DDOT":0}]
